STARLINK-1009_new
1 14715C 19074C   21326.16825520 -.00019879  00000-0 -13319-2 0  3264
2 14715  53.0551  27.9879 0001279  71.7051 188.5577 15.06420287    11
STARLINK-1009_old
1 24715C 19074C   21325.13801427  .00005640  00000-0  37786-3 0  3253
2 24715  53.0548  32.6129 0001356  74.8141 355.3026 15.06398282    10
